GLOBALSTAR M069         
1 31573U 07020C   26165.58673725 -.00000057  00000+0  32898-3 0  9996
2 31573  52.0031 259.4877 0002395 142.4655 322.4372 12.23471048878480
GLOBALSTAR M072         
1 31574U 07020D   26165.10441311 -.00000104  00000+0 -27730-3 0  9992
2 31574  51.9921 108.4521 0001405 323.9216  49.6867 11.91658465874618
GLOBALSTAR M066         
1 32265U 07048C   26165.88657913 -.00000147  00000+0 -44422-3 0  9996
2 32265  51.9602  64.5164 0005453  39.1884  39.5650 12.30387825859941
GLOBALSTAR M079         
1 37188U 10054A   26165.11673721 -.00000116  00000+0 -66588-4 0  9991
2 37188  52.0029 118.0165 0000642  16.9430 356.4067 12.62266081722167
GLOBALSTAR M074         
1 37189U 10054B   26165.57378412 -.00000127  00000+0 -13012-3 0  9996
2 37189  52.0005 115.8902 0000494  48.8779 122.5864 12.62268394722820
GLOBALSTAR M076         
1 37190U 10054C   26165.60016681 -.00000131  00000+0 -14969-3 0  9996
2 37190  52.0018 116.0126 0000691  39.7278 131.8170 12.62261771722543
GLOBALSTAR M077         
1 37191U 10054D   26165.83716791 -.00000060  00000+0  32113-3 0  9992
2 37191  51.9924 185.2611 0002769 168.3415   3.1969 11.67547789720865
GLOBALSTAR M075         
1 37192U 10054E   26165.69254558 -.00000110  00000+0 -36684-4 0  9990
2 37192  51.9920 157.7882 0000108  19.9122 151.4695 12.62267400721620
GLOBALSTAR M073         
1 37193U 10054F   26165.45535103 -.00000111  00000+0 -40665-4 0  9998
2 37193  52.0067  72.6080 0000876  42.3067 129.2420 12.62262121723581
GLOBALSTAR M083         
1 37739U 11033A   26165.31002924 -.00000092  00000+0  67229-4 0  9999
2 37739  51.9873  21.2829 0000905  61.7603 110.5543 12.62263032692581
GLOBALSTAR M088         
1 37740U 11033B   26165.64502557 -.00000093  00000+0  60764-4 0  9992
2 37740  52.0222 286.6865 0000748 122.6428 250.9958 12.62268661688179
GLOBALSTAR M091         
1 37741U 11033C   26165.43516061 -.00000078  00000+0  14269-3 0  9996
2 37741  51.9992 250.2945 0000368 147.4394 293.0858 12.62263864688934
GLOBALSTAR M085         
1 37742U 11033D   26165.83762719 -.00000078  00000+0  14216-3 0  9996
2 37742  52.0103 200.3586 0000105 256.4266 273.9449 12.62264116689492
GLOBALSTAR M081         
1 37743U 11033E   26165.86432139 -.00000074  00000+0  16710-3 0  9997
2 37743  51.9936 202.7164 0000138 115.7713  55.5865 12.62265014689644
GLOBALSTAR M089         
1 37744U 11033F   26165.74526440 -.00000103  00000+0  25295-5 0  9997
2 37744  51.9905 157.2370 0000345  89.4123  81.5232 12.62267202690477
GLOBALSTAR M084         
1 38040U 11080A   26165.88209552 -.00000095  00000+0  48312-4 0  9990
2 38040  52.0028  24.2997 0001079  82.0375 290.9234 12.62267515668476
GLOBALSTAR M080         
1 38041U 11080B   26165.78875458 -.00000091  00000+0  74026-4 0  9991
2 38041  52.0077  26.3013 0000360  70.7794   7.8486 12.62269351668580
GLOBALSTAR M082         
1 38042U 11080C   26165.78974226 -.00000096  00000+0  44208-4 0  9999
2 38042  52.0101 341.7991 0000551  93.7696 279.4384 12.62263551669295
GLOBALSTAR M092         
1 38043U 11080D   26165.48143075 -.00000108  00000+0 -23697-4 0  9991
2 38043  52.0093  73.1338 0000653  58.3852 112.1123 12.62266952667707
GLOBALSTAR M090         
1 38044U 11080E   26165.73721940 -.00000099  00000+0  23864-4 0  9997
2 38044  52.0142 335.9139 0000803  88.7411 284.6523 12.62269045669400
GLOBALSTAR M086         
1 38045U 11080F   26165.75914272 -.00000090  00000+0  74986-4 0  9994
2 38045  51.9915 335.7810 0001670  63.7661 310.1205 12.62286700669357
GLOBALSTAR M097         
1 39072U 13005A   26165.54976835 -.00000098  00000+0  31431-4 0  9990
2 39072  52.0047 251.3655 0000336 127.8374 232.2523 12.62247207616579
GLOBALSTAR M093         
1 39073U 13005B   26165.52302230 -.00000075  00000+0  15984-3 0  9990
2 39073  52.0100 244.7925 0000219 100.1349 259.9543 12.62265868616528
GLOBALSTAR M094         
1 39074U 13005C   26165.68129303 -.00000113  00000+0 -50893-4 0  9999
2 39074  51.9926 158.4288 0000349 355.1683   4.9180 12.62268583618156
GLOBALSTAR M096         
1 39075U 13005D   26165.85313256 -.00000073  00000+0  17421-3 0  9994
2 39075  52.0053 206.7064 0000053 220.7866 139.2997 12.62265631617092
GLOBALSTAR M078         
1 39076U 13005E   26165.66776803 -.00000183  00000+0 -44217-3 0  9991
2 39076  51.9887 291.2826 0000521 218.2736 141.8093 12.62257842615694
GLOBALSTAR M095         
1 39077U 13005F   26165.61534058 -.00000098  00000+0  31204-4 0  9998
2 39077  52.0094 289.0434 0000280 129.0552 231.0340 12.62263373615541
GLOBALSTAR M087         
1 52888U 22064A   26165.86614382 -.00000103  00000+0  27321-5 0  9997
2 52888  52.0006  69.5186 0000717  33.9310 326.1602 12.62269027190844
